{"type": "FeatureCollection", "features": [ {"type": "Feature", "properties": {"norad_id": 35961, "name": "COSMOS 2251 DEB", "group": "cosmos-2251-debris", "lat": -73.62789547259409, "lon": 130.20637597142192, "alt_km": 969.9453256416391, "timestamp": "2025-12-09T21:34:11.806534+00:00", "meta": {"OBJECT_NAME": "COSMOS 2251 DEB", "OBJECT_ID": "1993-036AVB", "EPOCH": "2025-12-08T23:47:16.046880", "MEAN_MOTION": 14.05362993, "ECCENTRICITY": 0.0192085, "INCLINATION": 73.9243, "RA_OF_ASC_NODE": 210.7691, "ARG_OF_PERICENTER": 145.0168, "MEAN_ANOMALY": 216.3768, "EPHEMERIS_TYPE": 0, "CLASSIFICATION_TYPE": "U", "NORAD_CAT_ID": 35961, "ELEMENT_SET_NO": 999, "REV_AT_EPOCH": 62629, "BSTAR": 0.0010036, "MEAN_MOTION_DOT": 1.896e-05, "MEAN_MOTION_DDOT": 0}, "tle": {"line1": "1 35961U 93036AVB 25342.99115795  .00001896  00000+0  10036-2 0  9992", "line2": "2 35961  73.9243 210.7691 0192085 145.0168 216.3768 14.05362993626290"}}, "geometry": {"type": "Point", "coordinates": [130.20637597142192, -73.62789547259409]}}, {"type": "Feature", "properties": {"norad_id": 35979, "name": "COSMOS 2251 DEB", "group": "cosmos-2251-debris", "lat": 6.790075308013954, "lon": 61.98550919590398, "alt_km": 685.9300154684233, "timestamp": "2025-12-09T21:34:11.806544+00:00", "meta": {"OBJECT_NAME": "COSMOS 2251 DEB", "OBJECT_ID": "1993-036AVV", "EPOCH": "2025-12-09T11:50:03.223968", "MEAN_MOTION": 14.74576302, "ECCENTRICITY": 0.00588204, "INCLINATION": 74.0104, "RA_OF_ASC_NODE": 244.7352, "ARG_OF_PERICENTER": 17.6471, "MEAN_ANOMALY": 162.3797, "EPHEMERIS_TYPE": 0, "CLASSIFICATION_TYPE": "U", "NORAD_CAT_ID": 35979, "ELEMENT_SET_NO": 999, "REV_AT_EPOCH": 88585, "BSTAR": 0.0014101379, "MEAN_MOTION_DOT": 9.639e-05, "MEAN_MOTION_DDOT": 0}, "tle": {"line1": "1 35979U 93036AVV 25343.49309287  .00009639  00000+0  14101-2 0  9998", "line2": "2 35979  74.0104 244.7352 0058820  17.6471 162.3797 14.74576302885855"}}, "geometry": {"type": "Point", "coordinates": [61.98550919590398, 6.790075308013954]}}, {"type": "Feature", "properties": {"norad_id": 35980, "name": "COSMOS 2251 DEB", "group": "cosmos-2251-debris", "lat": -25.726000140007162, "lon": -43.86323669888543, "alt_km": 679.46552266463, "timestamp": "2025-12-09T21:34:11.806555+00:00", "meta": {"OBJECT_NAME": "COSMOS 2251 DEB", "OBJECT_ID": "1993-036AVW", "EPOCH": "2025-12-02T19:08:08.015136", "MEAN_MOTION": 14.59062146, "ECCENTRICITY": 0.00537712, "INCLINATION": 73.91, "RA_OF_ASC_NODE": 141.7735, "ARG_OF_PERICENTER": 277.5645, "MEAN_ANOMALY": 81.9413, "EPHEMERIS_TYPE": 0, "CLASSIFICATION_TYPE": "U", "NORAD_CAT_ID": 35980, "ELEMENT_SET_NO": 999, "REV_AT_EPOCH": 61341, "BSTAR": 0.002036555, "MEAN_MOTION_DOT": 9.752e-05, "MEAN_MOTION_DDOT": 0}, "tle": {"line1": "1 35980U 93036AVW 25336.79731499  .00009752  00000+0  20366-2 0  9995", "line2": "2 35980  73.9100 141.7735 0053771 277.5645  81.9413 14.59062146613413"}}, "geometry": {"type": "Point", "coordinates": [-43.86323669888543, -25.726000140007162]}}, {"type": "Feature", "properties": {"norad_id": 35982, "name": "COSMOS 2251 DEB", "group": "cosmos-2251-debris", "lat": 72.72238886221878, "lon": 105.59445009164163, "alt_km": 640.866017719155, "timestamp": "2025-12-09T21:34:11.806565+00:00", "meta": {"OBJECT_NAME": "COSMOS 2251 DEB", "OBJECT_ID": "1993-036AVY", "EPOCH": "2025-12-08T10:39:50.053248", "MEAN_MOTION": 14.62714143, "ECCENTRICITY": 0.00640459, "INCLINATION": 74.0585, "RA_OF_ASC_NODE": 355.1514, "ARG_OF_PERICENTER": 62.7677, "MEAN_ANOMALY": 297.9996, "EPHEMERIS_TYPE": 0, "CLASSIFICATION_TYPE": "U", "NORAD_CAT_ID": 35982, "ELEMENT_SET_NO": 999, "REV_AT_EPOCH": 86103, "BSTAR": 0.00083154209, "MEAN_MOTION_DOT": 4.334e-05, "MEAN_MOTION_DDOT": 0}, "tle": {"line1": "1 35982U 93036AVY 25342.44432932  .00004334  00000+0  83154-3 0  9992", "line2": "2 35982  74.0585 355.1514 0064045  62.7677 297.9996 14.62714143861038"}}, "geometry": {"type": "Point", "coordinates": [105.59445009164163, 72.72238886221878]}}, {"type": "Feature", "properties": {"norad_id": 35987, "name": "COSMOS 2251 DEB", "group": "cosmos-2251-debris", "lat": -64.84336145928309, "lon": -65.7279725416067, "alt_km": 787.2311785365036, "timestamp": "2025-12-09T21:34:11.806575+00:00", "meta": {"OBJECT_NAME": "COSMOS 2251 DEB", "OBJECT_ID": "1993-036AWD", "EPOCH": "2025-12-08T05:58:00.511392", "MEAN_MOTION": 14.4308304, "ECCENTRICITY": 0.00458991, "INCLINATION": 73.9997, "RA_OF_ASC_NODE": 335.0019, "ARG_OF_PERICENTER": 102.0348, "MEAN_ANOMALY": 258.5958, "EPHEMERIS_TYPE": 0, "CLASSIFICATION_TYPE": "U", "NORAD_CAT_ID": 35987, "ELEMENT_SET_NO": 999, "REV_AT_EPOCH": 61000, "BSTAR": 0.0014339453, "MEAN_MOTION_DOT": 4.848e-05, "MEAN_MOTION_DDOT": 0}, "tle": {"line1": "1 35987U 93036AWD 25342.24861703  .00004848  00000+0  14339-2 0  9995", "line2": "2 35987  73.9997 335.0019 0045899 102.0348 258.5958 14.43083040610008"}}, "geometry": {"type": "Point", "coordinates": [-65.7279725416067, -64.84336145928309]}}, {"type": "Feature", "properties": {"norad_id": 35989, "name": "COSMOS 2251 DEB", "group": "cosmos-2251-debris", "lat": 34.63643319147471, "lon": -59.542594656938306, "alt_km": 751.2777976232728, "timestamp": "2025-12-09T21:34:11.806586+00:00", "meta": {"OBJECT_NAME": "COSMOS 2251 DEB", "OBJECT_ID": "1993-036AWF", "EPOCH": "2025-12-06T04:51:17.856864", "MEAN_MOTION": 14.37086268, "ECCENTRICITY": 0.00218316, "INCLINATION": 74.0371, "RA_OF_ASC_NODE": 295.8482, "ARG_OF_PERICENTER": 19.4894, "MEAN_ANOMALY": 340.7089, "EPHEMERIS_TYPE": 0, "CLASSIFICATION_TYPE": "U", "NORAD_CAT_ID": 35989, "ELEMENT_SET_NO": 999, "REV_AT_EPOCH": 87085, "BSTAR": 0.00043011654, "MEAN_MOTION_DOT": 1.255e-05, "MEAN_MOTION_DDOT": 0}, "tle": {"line1": "1 35989U 93036AWF 25340.20229001  .00001255  00000+0  43012-3 0  9990", "line2": "2 35989  74.0371 295.8482 0021831  19.4894 340.7089 14.37086268870850"}}, "geometry": {"type": "Point", "coordinates": [-59.542594656938306, 34.63643319147471]}}, {"type": "Feature", "properties": {"norad_id": 35993, "name": "COSMOS 2251 DEB", "group": "cosmos-2251-debris", "lat": -12.86595400408853, "lon": -25.480669867801154, "alt_km": 700.8743273698992, "timestamp": "2025-12-09T21:34:11.806596+00:00", "meta": {"OBJECT_NAME": "COSMOS 2251 DEB", "OBJECT_ID": "1993-036AWK", "EPOCH": "2025-12-08T17:46:29.587872", "MEAN_MOTION": 14.6525567, "ECCENTRICITY": 0.00290968, "INCLINATION": 74.0155, "RA_OF_ASC_NODE": 340.5036, "ARG_OF_PERICENTER": 171.3585, "MEAN_ANOMALY": 188.8091, "EPHEMERIS_TYPE": 0, "CLASSIFICATION_TYPE": "U", "NORAD_CAT_ID": 35993, "ELEMENT_SET_NO": 999, "REV_AT_EPOCH": 60384, "BSTAR": 0.0012264207, "MEAN_MOTION_DOT": 6.626e-05, "MEAN_MOTION_DDOT": 0}, "tle": {"line1": "1 35993U 93036AWK 25342.74062023  .00006626  00000+0  12264-2 0  9996", "line2": "2 35993  74.0155 340.5036 0029096 171.3585 188.8091 14.65255670603847"}}, "geometry": {"type": "Point", "coordinates": [-25.480669867801154, -12.86595400408853]}}, {"type": "Feature", "properties": {"norad_id": 35996, "name": "COSMOS 2251 DEB", "group": "cosmos-2251-debris", "lat": -14.267908120841918, "lon": 105.1063212420878, "alt_km": 593.2845466972249, "timestamp": "2025-12-09T21:34:11.806606+00:00", "meta": {"OBJECT_NAME": "COSMOS 2251 DEB", "OBJECT_ID": "1993-036AWN", "EPOCH": "2025-12-06T15:40:07.668192", "MEAN_MOTION": 15.08900528, "ECCENTRICITY": 0.00890114, "INCLINATION": 74.0155, "RA_OF_ASC_NODE": 115.9821, "ARG_OF_PERICENTER": 208.3907, "MEAN_ANOMALY": 151.2421, "EPHEMERIS_TYPE": 0, "CLASSIFICATION_TYPE": "U", "NORAD_CAT_ID": 35996, "ELEMENT_SET_NO": 999, "REV_AT_EPOCH": 72234, "BSTAR": 0.001269926, "MEAN_MOTION_DOT": 0.00021998, "MEAN_MOTION_DDOT": 0}, "tle": {"line1": "1 35996U 93036AWN 25340.65286653  .00021998  00000+0  12699-2 0  9995", "line2": "2 35996  74.0155 115.9821 0089011 208.3907 151.2421 15.08900528722343"}}, "geometry": {"type": "Point", "coordinates": [105.1063212420878, -14.267908120841918]}}, {"type": "Feature", "properties": {"norad_id": 35997, "name": "COSMOS 2251 DEB", "group": "cosmos-2251-debris", "lat": -51.05245621201289, "lon": 171.9056294824646, "alt_km": 719.1822702159307, "timestamp": "2025-12-09T21:34:11.806616+00:00", "meta": {"OBJECT_NAME": "COSMOS 2251 DEB", "OBJECT_ID": "1993-036AWP", "EPOCH": "2025-12-08T21:00:08.125056", "MEAN_MOTION": 14.51284984, "ECCENTRICITY": 0.0015739, "INCLINATION": 74.043, "RA_OF_ASC_NODE": 194.5619, "ARG_OF_PERICENTER": 270.4086, "MEAN_ANOMALY": 89.5272, "EPHEMERIS_TYPE": 0, "CLASSIFICATION_TYPE": "U", "NORAD_CAT_ID": 35997, "ELEMENT_SET_NO": 999, "REV_AT_EPOCH": 70828, "BSTAR": 0.00071394, "MEAN_MOTION_DOT": 2.818e-05, "MEAN_MOTION_DDOT": 0}, "tle": {"line1": "1 35997U 93036AWP 25342.87509404  .00002818  00000+0  71394-3 0  9992", "line2": "2 35997  74.0430 194.5619 0015739 270.4086  89.5272 14.51284984708284"}}, "geometry": {"type": "Point", "coordinates": [171.9056294824646, -51.05245621201289]}}, {"type": "Feature", "properties": {"norad_id": 36005, "name": "COSMOS 2251 DEB", "group": "cosmos-2251-debris", "lat": 17.4077545428896, "lon": 104.47349946188164, "alt_km": 768.5964116464938, "timestamp": "2025-12-09T21:34:11.806626+00:00", "meta": {"OBJECT_NAME": "COSMOS 2251 DEB", "OBJECT_ID": "1993-036AWX", "EPOCH": "2025-12-09T14:51:00.825984", "MEAN_MOTION": 14.47350558, "ECCENTRICITY": 0.00620119, "INCLINATION": 74.0266, "RA_OF_ASC_NODE": 99.8448, "ARG_OF_PERICENTER": 237.8267, "MEAN_ANOMALY": 121.6868, "EPHEMERIS_TYPE": 0, "CLASSIFICATION_TYPE": "U", "NORAD_CAT_ID": 36005, "ELEMENT_SET_NO": 999, "REV_AT_EPOCH": 87539, "BSTAR": 0.00038736481, "MEAN_MOTION_DOT": 1.425e-05, "MEAN_MOTION_DDOT": 0}, "tle": {"line1": "1 36005U 93036AWX 25343.61875956  .00001425  00000+0  38736-3 0  9990", "line2": "2 36005  74.0266  99.8448 0062011 237.8267 121.6868 14.47350558875394"}}, "geometry": {"type": "Point", "coordinates": [104.47349946188164, 17.4077545428896]}}]}